{
  "type": "FeatureCollection",
  "features": [
    {
      "type": "Feature",
      "properties": {
        "norad_id": 52912,
        "name": "GAOFEN-12 03",
        "group": "resource",
        "lat": -16.292599189313673,
        "lon": 59.17800595767843,
        "alt_km": 636.5093474140604,
        "timestamp": "2025-12-20T07:33:50.461508+00:00",
        "meta_object_name": "GAOFEN-12 03",
        "meta_object_id": "2022-069A",
        "meta_epoch": "2025-12-19T22:33:52.112736",
        "meta_mean_motion": 14.79626854,
        "meta_eccentricity": 0.0002025,
        "meta_inclination": 97.849,
        "meta_ra_of_asc_node": 241.1225,
        "meta_arg_of_pericenter": 54.4329,
        "meta_mean_anomaly": 305.7072,
        "meta_ephemeris_type": 0,
        "meta_classification_type": "U",
        "meta_norad_cat_id": 52912,
        "meta_element_set_no": 999,
        "meta_rev_at_epoch": 18810,
        "meta_bstar": 0.00017413589,
        "meta_mean_motion_dot": 1.255e-05,
        "meta_mean_motion_ddot": 0,
        "tle_line1": "1 52912U 22069A   25353.94018649  .00001255  00000+0  17414-3 0  9999",
        "tle_line2": "2 52912  97.8490 241.1225 0002025  54.4329 305.7072 14.79626854188105"
      },
      "geometry": {
        "type": "Point",
        "coordinates": [
          59.17800595767843,
          -16.292599189313673
        ]
      }
    },
    {
      "type": "Feature",
      "properties": {
        "norad_id": 54754,
        "name": "SWOT",
        "group": "resource",
        "lat": 8.308677362800733,
        "lon": 94.92462125223228,
        "alt_km": 894.7678540302522,
        "timestamp": "2025-12-20T07:33:50.461519+00:00",
        "meta_object_name": "SWOT",
        "meta_object_id": "2022-173A",
        "meta_epoch": "2025-12-19T20:27:31.631616",
        "meta_mean_motion": 14.00167881,
        "meta_eccentricity": 3.604e-05,
        "meta_inclination": 77.6109,
        "meta_ra_of_asc_node": 277.3885,
        "meta_arg_of_pericenter": 93.2451,
        "meta_mean_anomaly": 266.8741,
        "meta_ephemeris_type": 0,
        "meta_classification_type": "U",
        "meta_norad_cat_id": 54754,
        "meta_element_set_no": 999,
        "meta_rev_at_epoch": 15405,
        "meta_bstar": 1.8041999e-05,
        "meta_mean_motion_dot": 2.4e-07,
        "meta_mean_motion_ddot": 0,
        "tle_line1": "1 54754U 22173A   25353.85244944  .00000024  00000+0  18042-4 0  9992",
        "tle_line2": "2 54754  77.6109 277.3885 0000360  93.2451 266.8741 14.00167881154055"
      },
      "geometry": {
        "type": "Point",
        "coordinates": [
          94.92462125223228,
          8.308677362800733
        ]
      }
    },
    {
      "type": "Feature",
      "properties": {
        "norad_id": 57654,
        "name": "GAOFEN-12 04",
        "group": "resource",
        "lat": 8.273406742967872,
        "lon": -91.20143285759272,
        "alt_km": 631.7551773575224,
        "timestamp": "2025-12-20T07:33:50.461529+00:00",
        "meta_object_name": "GAOFEN-12 04",
        "meta_object_id": "2023-123A",
        "meta_epoch": "2025-12-19T21:47:19.948128",
        "meta_mean_motion": 14.79718988,
        "meta_eccentricity": 0.00012349,
        "meta_inclination": 97.9127,
        "meta_ra_of_asc_node": 269.5563,
        "meta_arg_of_pericenter": 77.1709,
        "meta_mean_anomaly": 282.9641,
        "meta_ephemeris_type": 0,
        "meta_classification_type": "U",
        "meta_norad_cat_id": 57654,
        "meta_element_set_no": 999,
        "meta_rev_at_epoch": 12611,
        "meta_bstar": 0.00012981063,
        "meta_mean_motion_dot": 9.24e-06,
        "meta_mean_motion_ddot": 0,
        "tle_line1": "1 57654U 23123A   25353.90786977  .00000924  00000+0  12981-3 0  9997",
        "tle_line2": "2 57654  97.9127 269.5563 0001234  77.1709 282.9641 14.79718988126116"
      },
      "geometry": {
        "type": "Point",
        "coordinates": [
          -91.20143285759272,
          8.273406742967872
        ]
      }
    },
    {
      "type": "Feature",
      "properties": {
        "norad_id": 59065,
        "name": "PARS 1",
        "group": "resource",
        "lat": -80.83167289651018,
        "lon": 19.730386749536454,
        "alt_km": 455.83614609268625,
        "timestamp": "2025-12-20T07:33:50.461539+00:00",
        "meta_object_name": "PARS 1",
        "meta_object_id": "2024-039Q",
        "meta_epoch": "2025-12-19T22:34:52.192704",
        "meta_mean_motion": 15.41128111,
        "meta_eccentricity": 0.00121092,
        "meta_inclination": 97.4638,
        "meta_ra_of_asc_node": 325.0269,
        "meta_arg_of_pericenter": 50.4841,
        "meta_mean_anomaly": 309.7474,
        "meta_ephemeris_type": 0,
        "meta_classification_type": "U",
        "meta_norad_cat_id": 59065,
        "meta_element_set_no": 999,
        "meta_rev_at_epoch": 10099,
        "meta_bstar": 0.00020713504,
        "meta_mean_motion_dot": 8.51e-05,
        "meta_mean_motion_ddot": 0,
        "tle_line1": "1 59065U 24039Q   25353.94088186  .00008510  00000+0  20714-3 0  9995",
        "tle_line2": "2 59065  97.4638 325.0269 0012109  50.4841 309.7474 15.41128111100994"
      },
      "geometry": {
        "type": "Point",
        "coordinates": [
          19.730386749536454,
          -80.83167289651018
        ]
      }
    },
    {
      "type": "Feature",
      "properties": {
        "norad_id": 59371,
        "name": "RESURS-P 4",
        "group": "resource",
        "lat": 6.011628359029867,
        "lon": 121.25866326307306,
        "alt_km": 472.01966050395004,
        "timestamp": "2025-12-20T07:33:50.461549+00:00",
        "meta_object_name": "RESURS-P 4",
        "meta_object_id": "2024-061A",
        "meta_epoch": "2025-12-19T22:58:14.089728",
        "meta_mean_motion": 15.3213882,
        "meta_eccentricity": 0.00010383,
        "meta_inclination": 97.2555,
        "meta_ra_of_asc_node": 300.1391,
        "meta_arg_of_pericenter": 60.005,
        "meta_mean_anomaly": 300.1295,
        "meta_ephemeris_type": 0,
        "meta_classification_type": "U",
        "meta_norad_cat_id": 59371,
        "meta_element_set_no": 999,
        "meta_rev_at_epoch": 9631,
        "meta_bstar": 9.8572532e-05,
        "meta_mean_motion_dot": 2.983e-05,
        "meta_mean_motion_ddot": 0,
        "tle_line1": "1 59371U 24061A   25353.95710752  .00002983  00000+0  98573-4 0  9999",
        "tle_line2": "2 59371  97.2555 300.1391 0001038  60.0050 300.1295 15.32138820 96312"
      },
      "geometry": {
        "type": "Point",
        "coordinates": [
          121.25866326307306,
          6.011628359029867
        ]
      }
    },
    {
      "type": "Feature",
      "properties": {
        "norad_id": 59625,
        "name": "LEGION 1",
        "group": "resource",
        "lat": -25.57190541066398,
        "lon": 72.5139053290157,
        "alt_km": 520.4069426865444,
        "timestamp": "2025-12-20T07:33:50.461560+00:00",
        "meta_object_name": "LEGION 1",
        "meta_object_id": "2024-081A",
        "meta_epoch": "2025-12-19T22:10:34.509792",
        "meta_mean_motion": 15.1654522,
        "meta_eccentricity": 0.00036426,
        "meta_inclination": 97.521,
        "meta_ra_of_asc_node": 68.5014,
        "meta_arg_of_pericenter": 285.0786,
        "meta_mean_anomaly": 75.0043,
        "meta_ephemeris_type": 0,
        "meta_classification_type": "U",
        "meta_norad_cat_id": 59625,
        "meta_element_set_no": 999,
        "meta_rev_at_epoch": 9036,
        "meta_bstar": 0.00015931933,
        "meta_mean_motion_dot": 3.04e-05,
        "meta_mean_motion_ddot": 0,
        "tle_line1": "1 59625U 24081A   25353.92401053  .00003040  00000+0  15932-3 0  9993",
        "tle_line2": "2 59625  97.5210  68.5014 0003642 285.0786  75.0043 15.16545220 90366"
      },
      "geometry": {
        "type": "Point",
        "coordinates": [
          72.5139053290157,
          -25.57190541066398
        ]
      }
    },
    {
      "type": "Feature",
      "properties": {
        "norad_id": 59626,
        "name": "LEGION 2",
        "group": "resource",
        "lat": 25.3450418554697,
        "lon": -107.43493423713349,
        "alt_km": 516.6517347451436,
        "timestamp": "2025-12-20T07:33:50.461571+00:00",
        "meta_object_name": "LEGION 2",
        "meta_object_id": "2024-081B",
        "meta_epoch": "2025-12-19T21:23:02.476896",
        "meta_mean_motion": 15.16558357,
        "meta_eccentricity": 0.00056284,
        "meta_inclination": 97.5213,
        "meta_ra_of_asc_node": 68.5565,
        "meta_arg_of_pericenter": 262.4984,
        "meta_mean_anomaly": 97.561,
        "meta_ephemeris_type": 0,
        "meta_classification_type": "U",
        "meta_norad_cat_id": 59626,
        "meta_element_set_no": 999,
        "meta_rev_at_epoch": 9036,
        "meta_bstar": 0.000197742,
        "meta_mean_motion_dot": 3.792e-05,
        "meta_mean_motion_ddot": 0,
        "tle_line1": "1 59626U 24081B   25353.89100089  .00003792  00000+0  19774-3 0  9997",
        "tle_line2": "2 59626  97.5213  68.5565 0005628 262.4984  97.5610 15.16558357 90360"
      },
      "geometry": {
        "type": "Point",
        "coordinates": [
          -107.43493423713349,
          25.3450418554697
        ]
      }
    }
  ]
}